{
  "type": "FeatureCollection",
  "features": [
    {
      "type": "Feature",
      "properties": {
        "norad_id": 27954,
        "name": "GALAXY 13 (HORIZONS-1)",
        "group": "intelsat",
        "lat": 0.4391890569064503,
        "lon": -123.55460608434484,
        "alt_km": 35778.074492751286,
        "timestamp": "2025-12-07T20:38:13.744926+00:00",
        "meta_object_name": "GALAXY 13 (HORIZONS-1)",
        "meta_object_id": "2003-044A",
        "meta_epoch": "2025-12-07T06:52:17.546880",
        "meta_mean_motion": 1.00270319,
        "meta_eccentricity": 0.00019683,
        "meta_inclination": 0.9214,
        "meta_ra_of_asc_node": 86.5406,
        "meta_arg_of_pericenter": 155.2736,
        "meta_mean_anomaly": 147.5884,
        "meta_ephemeris_type": 0,
        "meta_classification_type": "U",
        "meta_norad_cat_id": 27954,
        "meta_element_set_no": 999,
        "meta_rev_at_epoch": 4464,
        "meta_bstar": 0,
        "meta_mean_motion_dot": 1.37e-06,
        "meta_mean_motion_ddot": 0,
        "tle_line1": "1 27954U 03044A   25341.28631420  .00000137  00000+0  00000+0 0  9998",
        "tle_line2": "2 27954   0.9214  86.5406 0001968 155.2736 147.5884  1.00270319 44645"
      },
      "geometry": {
        "type": "Point",
        "coordinates": [
          -123.55460608434484,
          0.4391890569064503
        ]
      }
    },
    {
      "type": "Feature",
      "properties": {
        "norad_id": 28358,
        "name": "INTELSAT 10-02",
        "group": "intelsat",
        "lat": -0.006757606389118419,
        "lon": 25.453910975269174,
        "alt_km": 35787.46190575952,
        "timestamp": "2025-12-07T20:38:13.744951+00:00",
        "meta_object_name": "INTELSAT 10-02",
        "meta_object_id": "2004-022A",
        "meta_epoch": "2025-12-07T06:46:54.348672",
        "meta_mean_motion": 1.00270043,
        "meta_eccentricity": 0.00011192,
        "meta_inclination": 0.0344,
        "meta_ra_of_asc_node": 71.5199,
        "meta_arg_of_pericenter": 213.0136,
        "meta_mean_anomaly": 252.518,
        "meta_ephemeris_type": 0,
        "meta_classification_type": "U",
        "meta_norad_cat_id": 28358,
        "meta_element_set_no": 999,
        "meta_rev_at_epoch": 7863,
        "meta_bstar": 0,
        "meta_mean_motion_dot": -7e-08,
        "meta_mean_motion_ddot": 0,
        "tle_line1": "1 28358U 04022A   25341.28257348 -.00000007  00000+0  00000+0 0  9994",
        "tle_line2": "2 28358   0.0344  71.5199 0001119 213.0136 252.5180  1.00270043 78633"
      },
      "geometry": {
        "type": "Point",
        "coordinates": [
          25.453910975269174,
          -0.006757606389118419
        ]
      }
    },
    {
      "type": "Feature",
      "properties": {
        "norad_id": 28626,
        "name": "XM-3 (RHYTHM)",
        "group": "intelsat",
        "lat": 0.15696765407089455,
        "lon": 163.9078192644413,
        "alt_km": 36164.74563080038,
        "timestamp": "2025-12-07T20:38:13.744966+00:00",
        "meta_object_name": "XM-3 (RHYTHM)",
        "meta_object_id": "2005-008A",
        "meta_epoch": "2025-12-07T07:27:05.499648",
        "meta_mean_motion": 0.98954379,
        "meta_eccentricity": 0.00012317,
        "meta_inclination": 0.1603,
        "meta_ra_of_asc_node": 81.0699,
        "meta_arg_of_pericenter": 261.0026,
        "meta_mean_anomaly": 346.1224,
        "meta_ephemeris_type": 0,
        "meta_classification_type": "U",
        "meta_norad_cat_id": 28626,
        "meta_element_set_no": 999,
        "meta_rev_at_epoch": 4069,
        "meta_bstar": 0,
        "meta_mean_motion_dot": -2.66e-06,
        "meta_mean_motion_ddot": 0,
        "tle_line1": "1 28626U 05008A   25341.31048032 -.00000266  00000+0  00000+0 0  9996",
        "tle_line2": "2 28626   0.1603  81.0699 0001231 261.0026 346.1224  0.98954379 40698"
      },
      "geometry": {
        "type": "Point",
        "coordinates": [
          163.9078192644413,
          0.15696765407089455
        ]
      }
    },
    {
      "type": "Feature",
      "properties": {
        "norad_id": 28659,
        "name": "DIRECTV 8",
        "group": "intelsat",
        "lat": -0.039269129427970666,
        "lon": -92.61682705918777,
        "alt_km": 35772.539901797565,
        "timestamp": "2025-12-07T20:38:13.744979+00:00",
        "meta_object_name": "DIRECTV 8",
        "meta_object_id": "2005-019A",
        "meta_epoch": "2025-12-07T08:12:59.085792",
        "meta_mean_motion": 1.00271332,
        "meta_eccentricity": 0.0003248,
        "meta_inclination": 0.0167,
        "meta_ra_of_asc_node": 348.7889,
        "meta_arg_of_pericenter": 271.3378,
        "meta_mean_anomaly": 180.438,
        "meta_ephemeris_type": 0,
        "meta_classification_type": "U",
        "meta_norad_cat_id": 28659,
        "meta_element_set_no": 999,
        "meta_rev_at_epoch": 7514,
        "meta_bstar": 0,
        "meta_mean_motion_dot": 6e-08,
        "meta_mean_motion_ddot": 0,
        "tle_line1": "1 28659U 05019A   25341.34235053  .00000006  00000+0  00000+0 0  9999",
        "tle_line2": "2 28659   0.0167 348.7889 0003248 271.3378 180.4380  1.00271332 75141"
      },
      "geometry": {
        "type": "Point",
        "coordinates": [
          -92.61682705918777,
          -0.039269129427970666
        ]
      }
    },
    {
      "type": "Feature",
      "properties": {
        "norad_id": 28702,
        "name": "GALAXY 28 (G-28)",
        "group": "intelsat",
        "lat": -1.6837801344455092,
        "lon": -62.26613361324281,
        "alt_km": 35777.827890063854,
        "timestamp": "2025-12-07T20:38:13.744991+00:00",
        "meta_object_name": "GALAXY 28 (G-28)",
        "meta_object_id": "2005-022A",
        "meta_epoch": "2025-12-07T07:31:12.976032",
        "meta_mean_motion": 1.00271565,
        "meta_eccentricity": 0.00026545,
        "meta_inclination": 2.8047,
        "meta_ra_of_asc_node": 81.3453,
        "meta_arg_of_pericenter": 176.0467,
        "meta_mean_anomaly": 203.0653,
        "meta_ephemeris_type": 0,
        "meta_classification_type": "U",
        "meta_norad_cat_id": 28702,
        "meta_element_set_no": 999,
        "meta_rev_at_epoch": 5005,
        "meta_bstar": 0,
        "meta_mean_motion_dot": -1.84e-06,
        "meta_mean_motion_ddot": 0,
        "tle_line1": "1 28702U 05022A   25341.31334463 -.00000184  00000+0  00000+0 0  9992",
        "tle_line2": "2 28702   2.8047  81.3453 0002654 176.0467 203.0653  1.00271565 50050"
      },
      "geometry": {
        "type": "Point",
        "coordinates": [
          -62.26613361324281,
          -1.6837801344455092
        ]
      }
    },
    {
      "type": "Feature",
      "properties": {
        "norad_id": 29236,
        "name": "GALAXY 16 (G-16)",
        "group": "intelsat",
        "lat": 0.0010357326031147827,
        "lon": -72.5666202354788,
        "alt_km": 35774.60895861442,
        "timestamp": "2025-12-07T20:38:13.745003+00:00",
        "meta_object_name": "GALAXY 16 (G-16)",
        "meta_object_id": "2006-023A",
        "meta_epoch": "2025-12-07T07:09:32.931648",
        "meta_mean_motion": 1.00271165,
        "meta_eccentricity": 0.00030085,
        "meta_inclination": 0.0014,
        "meta_ra_of_asc_node": 246.4408,
        "meta_arg_of_pericenter": 17.2474,
        "meta_mean_anomaly": 181.0155,
        "meta_ephemeris_type": 0,
        "meta_classification_type": "U",
        "meta_norad_cat_id": 29236,
        "meta_element_set_no": 999,
        "meta_rev_at_epoch": 7104,
        "meta_bstar": 0,
        "meta_mean_motion_dot": -1.22e-06,
        "meta_mean_motion_ddot": 0,
        "tle_line1": "1 29236U 06023A   25341.29829782 -.00000122  00000+0  00000+0 0  9999",
        "tle_line2": "2 29236   0.0014 246.4408 0003008  17.2474 181.0155  1.00271165 71049"
      },
      "geometry": {
        "type": "Point",
        "coordinates": [
          -72.5666202354788,
          0.0010357326031147827
        ]
      }
    },
    {
      "type": "Feature",
      "properties": {
        "norad_id": 29494,
        "name": "DIRECTV 9S",
        "group": "intelsat",
        "lat": -0.7416615050985207,
        "lon": -74.77646720114761,
        "alt_km": 35774.28152234888,
        "timestamp": "2025-12-07T20:38:13.745015+00:00",
        "meta_object_name": "DIRECTV 9S",
        "meta_object_id": "2006-043A",
        "meta_epoch": "2025-12-07T07:19:24.275712",
        "meta_mean_motion": 1.00270561,
        "meta_eccentricity": 0.0003243,
        "meta_inclination": 1.9257,
        "meta_ra_of_asc_node": 83.265,
        "meta_arg_of_pericenter": 175.0328,
        "meta_mean_anomaly": 186.6729,
        "meta_ephemeris_type": 0,
        "meta_classification_type": "U",
        "meta_norad_cat_id": 29494,
        "meta_element_set_no": 999,
        "meta_rev_at_epoch": 4946,
        "meta_bstar": 0,
        "meta_mean_motion_dot": -1.09e-06,
        "meta_mean_motion_ddot": 0,
        "tle_line1": "1 29494U 06043A   25341.30514208 -.00000109  00000+0  00000+0 0  9998",
        "tle_line2": "2 29494   1.9257  83.2650 0003243 175.0328 186.6729  1.00270561 49460"
      },
      "geometry": {
        "type": "Point",
        "coordinates": [
          -74.77646720114761,
          -0.7416615050985207
        ]
      }
    }
  ]
}